[{"OBJECT_NAME":"SATELIOT_4","OBJECT_ID":"2024-149BX","EPOCH":"2026-03-28T17:37:14.275200","MEAN_MOTION":14.96344373,"ECCENTRICITY":9.43e-5,"INCLINATION":97.6769,"RA_OF_ASC_NODE":163.7462,"ARG_OF_PERICENTER":336.5798,"MEAN_ANOMALY":23.538,"EPHEMERIS_TYPE":0,"CLASSIFICATION_TYPE":"U","NORAD_CAT_ID":60537,"ELEMENT_SET_NO":999,"REV_AT_EPOCH":8794,"BSTAR":0.00020416,"MEAN_MOTION_DOT":2.253e-5,"MEAN_MOTION_DDOT":0},{"OBJECT_NAME":"PICO-02A021","OBJECT_ID":"2024-149BY","EPOCH":"2026-03-28T16:03:40.099968","MEAN_MOTION":15.02438148,"ECCENTRICITY":0.0002271,"INCLINATION":97.6793,"RA_OF_ASC_NODE":167.2416,"ARG_OF_PERICENTER":300.4088,"MEAN_ANOMALY":59.6912,"EPHEMERIS_TYPE":0,"CLASSIFICATION_TYPE":"U","NORAD_CAT_ID":60538,"ELEMENT_SET_NO":999,"REV_AT_EPOCH":8764,"BSTAR":0.00047045,"MEAN_MOTION_DOT":6.178e-5,"MEAN_MOTION_DDOT":0},{"OBJECT_NAME":"ICEYE-X43","OBJECT_ID":"2024-149BZ","EPOCH":"2026-03-28T18:16:38.840160","MEAN_MOTION":14.99487842,"ECCENTRICITY":0.0002601,"INCLINATION":97.6823,"RA_OF_ASC_NODE":165.8157,"ARG_OF_PERICENTER":43.3729,"MEAN_ANOMALY":316.7698,"EPHEMERIS_TYPE":0,"CLASSIFICATION_TYPE":"U","NORAD_CAT_ID":60539,"ELEMENT_SET_NO":999,"REV_AT_EPOCH":8806,"BSTAR":0.00038404,"MEAN_MOTION_DOT":4.655e-5,"MEAN_MOTION_DDOT":0},{"OBJECT_NAME":"HAWK-10A","OBJECT_ID":"2024-149CA","EPOCH":"2026-03-28T19:01:38.313984","MEAN_MOTION":14.96250165,"ECCENTRICITY":0.0003218,"INCLINATION":97.6927,"RA_OF_ASC_NODE":165.0893,"ARG_OF_PERICENTER":3.9383,"MEAN_ANOMALY":356.1864,"EPHEMERIS_TYPE":0,"CLASSIFICATION_TYPE":"U","NORAD_CAT_ID":60540,"ELEMENT_SET_NO":999,"REV_AT_EPOCH":8796,"BSTAR":0.00012402,"MEAN_MOTION_DOT":1.343e-5,"MEAN_MOTION_DDOT":0},{"OBJECT_NAME":"UMBRA-09","OBJECT_ID":"2024-149CB","EPOCH":"2026-03-28T18:46:10.866144","MEAN_MOTION":15.15484036,"ECCENTRICITY":0.0001718,"INCLINATION":97.6973,"RA_OF_ASC_NODE":173.7722,"ARG_OF_PERICENTER":218.0119,"MEAN_ANOMALY":142.0992,"EPHEMERIS_TYPE":0,"CLASSIFICATION_TYPE":"U","NORAD_CAT_ID":60541,"ELEMENT_SET_NO":999,"REV_AT_EPOCH":8853,"BSTAR":0.0011028,"MEAN_MOTION_DOT":0.0002085,"MEAN_MOTION_DDOT":0},{"OBJECT_NAME":"QPS-SAR-8 (AMATERU-IV)","OBJECT_ID":"2024-149CC","EPOCH":"2026-03-28T21:01:08.548896","MEAN_MOTION":15.03283342,"ECCENTRICITY":0.0004314,"INCLINATION":97.6702,"RA_OF_ASC_NODE":167.7451,"ARG_OF_PERICENTER":52.7886,"MEAN_ANOMALY":307.3733,"EPHEMERIS_TYPE":0,"CLASSIFICATION_TYPE":"U","NORAD_CAT_ID":60542,"ELEMENT_SET_NO":999,"REV_AT_EPOCH":8820,"BSTAR":0.00050122,"MEAN_MOTION_DOT":6.737e-5,"MEAN_MOTION_DDOT":0},{"OBJECT_NAME":"ARCTIC WEATHER SATELLITE","OBJECT_ID":"2024-149CD","EPOCH":"2026-03-28T18:10:40.444320","MEAN_MOTION":14.8981309,"ECCENTRICITY":0.0002836,"INCLINATION":97.6849,"RA_OF_ASC_NODE":160.5043,"ARG_OF_PERICENTER":48.8626,"MEAN_ANOMALY":311.2837,"EPHEMERIS_TYPE":0,"CLASSIFICATION_TYPE":"U","NORAD_CAT_ID":60543,"ELEMENT_SET_NO":999,"REV_AT_EPOCH":8732,"BSTAR":0.00011449,"MEAN_MOTION_DOT":1.045e-5,"MEAN_MOTION_DDOT":0},{"OBJECT_NAME":"CAPELLA-15 (ACADIA-5)","OBJECT_ID":"2024-149CE","EPOCH":"2026-03-28T03:06:42.909120","MEAN_MOTION":14.92478859,"ECCENTRICITY":0.00030597,"INCLINATION":97.6806,"RA_OF_ASC_NODE":162.0383,"ARG_OF_PERICENTER":359.588,"MEAN_ANOMALY":0.5336,"EPHEMERIS_TYPE":0,"CLASSIFICATION_TYPE":"U","NORAD_CAT_ID":60544,"ELEMENT_SET_NO":999,"REV_AT_EPOCH":8776,"BSTAR":0.00068448902,"MEAN_MOTION_DOT":6.971e-5,"MEAN_MOTION_DDOT":0},{"OBJECT_NAME":"HAWK-10B","OBJECT_ID":"2024-149CF","EPOCH":"2026-03-28T20:37:47.654976","MEAN_MOTION":14.96252315,"ECCENTRICITY":0.00055,"INCLINATION":97.6848,"RA_OF_ASC_NODE":164.5902,"ARG_OF_PERICENTER":15.8905,"MEAN_ANOMALY":344.2488,"EPHEMERIS_TYPE":0,"CLASSIFICATION_TYPE":"U","NORAD_CAT_ID":60545,"ELEMENT_SET_NO":999,"REV_AT_EPOCH":8797,"BSTAR":0.00014177,"MEAN_MOTION_DOT":1.543e-5,"MEAN_MOTION_DDOT":0},{"OBJECT_NAME":"ICEYE-X39","OBJECT_ID":"2024-149CG","EPOCH":"2026-03-28T19:23:41.733024","MEAN_MOTION":14.99349925,"ECCENTRICITY":0.0002859,"INCLINATION":97.6804,"RA_OF_ASC_NODE":165.9202,"ARG_OF_PERICENTER":345.9608,"MEAN_ANOMALY":14.1535,"EPHEMERIS_TYPE":0,"CLASSIFICATION_TYPE":"U","NORAD_CAT_ID":60546,"ELEMENT_SET_NO":999,"REV_AT_EPOCH":8807,"BSTAR":0.00032604,"MEAN_MOTION_DOT":3.928e-5,"MEAN_MOTION_DDOT":0},{"OBJECT_NAME":"UMBRA-10","OBJECT_ID":"2024-149CH","EPOCH":"2026-03-28T18:45:32.096736","MEAN_MOTION":15.15486532,"ECCENTRICITY":0.0001256,"INCLINATION":97.6979,"RA_OF_ASC_NODE":173.7931,"ARG_OF_PERICENTER":174.6039,"MEAN_ANOMALY":185.5206,"EPHEMERIS_TYPE":0,"CLASSIFICATION_TYPE":"U","NORAD_CAT_ID":60547,"ELEMENT_SET_NO":999,"REV_AT_EPOCH":8854,"BSTAR":0.0011282,"MEAN_MOTION_DOT":0.00021334,"MEAN_MOTION_DDOT":0},{"OBJECT_NAME":"ICEYE-X33","OBJECT_ID":"2024-149CJ","EPOCH":"2026-03-28T18:34:38.756352","MEAN_MOTION":15.0133194,"ECCENTRICITY":0.000546,"INCLINATION":97.7053,"RA_OF_ASC_NODE":167.4624,"ARG_OF_PERICENTER":72.8794,"MEAN_ANOMALY":287.3028,"EPHEMERIS_TYPE":0,"CLASSIFICATION_TYPE":"U","NORAD_CAT_ID":60548,"ELEMENT_SET_NO":999,"REV_AT_EPOCH":8814,"BSTAR":0.00043215,"MEAN_MOTION_DOT":5.507e-5,"MEAN_MOTION_DDOT":0},{"OBJECT_NAME":"ICEYE-X40","OBJECT_ID":"2024-149CK","EPOCH":"2026-03-28T19:14:04.621632","MEAN_MOTION":14.97641828,"ECCENTRICITY":0.0004363,"INCLINATION":97.6832,"RA_OF_ASC_NODE":165.596,"ARG_OF_PERICENTER":359.0736,"MEAN_ANOMALY":1.0477,"EPHEMERIS_TYPE":0,"CLASSIFICATION_TYPE":"U","NORAD_CAT_ID":60549,"ELEMENT_SET_NO":999,"REV_AT_EPOCH":8804,"BSTAR":0.00020719,"MEAN_MOTION_DOT":2.366e-5,"MEAN_MOTION_DDOT":0},{"OBJECT_NAME":"SATELIOT_1","OBJECT_ID":"2024-149CL","EPOCH":"2026-03-28T17:31:57.764352","MEAN_MOTION":14.97694652,"ECCENTRICITY":0.0006269,"INCLINATION":97.6774,"RA_OF_ASC_NODE":164.978,"ARG_OF_PERICENTER":353.4421,"MEAN_ANOMALY":6.6718,"EPHEMERIS_TYPE":0,"CLASSIFICATION_TYPE":"U","NORAD_CAT_ID":60550,"ELEMENT_SET_NO":999,"REV_AT_EPOCH":8802,"BSTAR":0.00020042,"MEAN_MOTION_DOT":2.29e-5,"MEAN_MOTION_DDOT":0},{"OBJECT_NAME":"BRO-14","OBJECT_ID":"2024-149CM","EPOCH":"2026-03-28T17:39:48.754944","MEAN_MOTION":14.95986247,"ECCENTRICITY":0.0006862,"INCLINATION":97.6904,"RA_OF_ASC_NODE":164.9567,"ARG_OF_PERICENTER":19.0066,"MEAN_ANOMALY":341.141,"EPHEMERIS_TYPE":0,"CLASSIFICATION_TYPE":"U","NORAD_CAT_ID":60551,"ELEMENT_SET_NO":999,"REV_AT_EPOCH":8796,"BSTAR":0.00011972,"MEAN_MOTION_DOT":1.285e-5,"MEAN_MOTION_DDOT":0},{"OBJECT_NAME":"SATELIOT_3","OBJECT_ID":"2024-149CN","EPOCH":"2026-03-28T18:32:50.941248","MEAN_MOTION":14.97711767,"ECCENTRICITY":0.0005091,"INCLINATION":97.6867,"RA_OF_ASC_NODE":165.736,"ARG_OF_PERICENTER":16.3012,"MEAN_ANOMALY":343.8373,"EPHEMERIS_TYPE":0,"CLASSIFICATION_TYPE":"U","NORAD_CAT_ID":60552,"ELEMENT_SET_NO":999,"REV_AT_EPOCH":8804,"BSTAR":0.0002623,"MEAN_MOTION_DOT":3.017e-5,"MEAN_MOTION_DDOT":0},{"OBJECT_NAME":"BRO-15","OBJECT_ID":"2024-149CP","EPOCH":"2026-03-28T17:11:36.127968","MEAN_MOTION":14.95945508,"ECCENTRICITY":0.0008128,"INCLINATION":97.684,"RA_OF_ASC_NODE":164.6154,"ARG_OF_PERICENTER":8.2824,"MEAN_ANOMALY":351.853,"EPHEMERIS_TYPE":0,"CLASSIFICATION_TYPE":"U","NORAD_CAT_ID":60553,"ELEMENT_SET_NO":999,"REV_AT_EPOCH":8797,"BSTAR":7.4119e-5,"MEAN_MOTION_DOT":7.73e-6,"MEAN_MOTION_DDOT":0},{"OBJECT_NAME":"UM5-RIBAT","OBJECT_ID":"2024-149CQ","EPOCH":"2026-03-28T19:12:56.170368","MEAN_MOTION":15.00603598,"ECCENTRICITY":0.000135,"INCLINATION":97.6727,"RA_OF_ASC_NODE":166.6763,"ARG_OF_PERICENTER":63.502,"MEAN_ANOMALY":296.6342,"EPHEMERIS_TYPE":0,"CLASSIFICATION_TYPE":"U","NORAD_CAT_ID":60554,"ELEMENT_SET_NO":999,"REV_AT_EPOCH":8813,"BSTAR":0.00028682,"MEAN_MOTION_DOT":3.564e-5,"MEAN_MOTION_DDOT":0},{"OBJECT_NAME":"UM5-EOSAT","OBJECT_ID":"2024-149CR","EPOCH":"2026-03-28T18:56:37.148640","MEAN_MOTION":15.01027243,"ECCENTRICITY":0.0006339,"INCLINATION":97.6777,"RA_OF_ASC_NODE":167.5294,"ARG_OF_PERICENTER":51.3581,"MEAN_ANOMALY":308.8209,"EPHEMERIS_TYPE":0,"CLASSIFICATION_TYPE":"U","NORAD_CAT_ID":60555,"ELEMENT_SET_NO":999,"REV_AT_EPOCH":8815,"BSTAR":0.00026386,"MEAN_MOTION_DOT":3.312e-5,"MEAN_MOTION_DDOT":0},{"OBJECT_NAME":"LASARSAT","OBJECT_ID":"2024-247Q","EPOCH":"2026-03-28T00:47:41.666496","MEAN_MOTION":15.41383203,"ECCENTRICITY":0.0004133,"INCLINATION":44.9771,"RA_OF_ASC_NODE":356.5427,"ARG_OF_PERICENTER":198.684,"MEAN_ANOMALY":161.3897,"EPHEMERIS_TYPE":0,"CLASSIFICATION_TYPE":"U","NORAD_CAT_ID":62391,"ELEMENT_SET_NO":999,"REV_AT_EPOCH":7077,"BSTAR":0.00078472,"MEAN_MOTION_DOT":0.0003329,"MEAN_MOTION_DDOT":0},{"OBJECT_NAME":"CROCUBE","OBJECT_ID":"2024-247T","EPOCH":"2026-03-28T18:15:31.882752","MEAN_MOTION":15.42716968,"ECCENTRICITY":0.0003808,"INCLINATION":44.9746,"RA_OF_ASC_NODE":350.9042,"ARG_OF_PERICENTER":200.4738,"MEAN_ANOMALY":159.5998,"EPHEMERIS_TYPE":0,"CLASSIFICATION_TYPE":"U","NORAD_CAT_ID":62394,"ELEMENT_SET_NO":999,"REV_AT_EPOCH":7090,"BSTAR":0.00094072,"MEAN_MOTION_DOT":0.0004186,"MEAN_MOTION_DDOT":0},{"OBJECT_NAME":"TEVEL2-4","OBJECT_ID":"2025-052D","EPOCH":"2026-03-28T10:45:39.178368","MEAN_MOTION":15.31690724,"ECCENTRICITY":0.00042842,"INCLINATION":97.3996,"RA_OF_ASC_NODE":343.8393,"ARG_OF_PERICENTER":59.984,"MEAN_ANOMALY":300.1826,"EPHEMERIS_TYPE":0,"CLASSIFICATION_TYPE":"U","NORAD_CAT_ID":63213,"ELEMENT_SET_NO":999,"REV_AT_EPOCH":5774,"BSTAR":0.00073709764,"MEAN_MOTION_DOT":0.00022525,"MEAN_MOTION_DDOT":0},{"OBJECT_NAME":"TEVEL2-5","OBJECT_ID":"2025-052E","EPOCH":"2026-03-28T15:45:54.108000","MEAN_MOTION":15.31569852,"ECCENTRICITY":0.0004195,"INCLINATION":97.3997,"RA_OF_ASC_NODE":344.0161,"ARG_OF_PERICENTER":59.1708,"MEAN_ANOMALY":300.9946,"EPHEMERIS_TYPE":0,"CLASSIFICATION_TYPE":"U","NORAD_CAT_ID":63214,"ELEMENT_SET_NO":999,"REV_AT_EPOCH":5777,"BSTAR":0.00075643,"MEAN_MOTION_DOT":0.00023032,"MEAN_MOTION_DDOT":0},{"OBJECT_NAME":"TEVEL2-6","OBJECT_ID":"2025-052F","EPOCH":"2026-03-28T16:00:46.387584","MEAN_MOTION":15.31529019,"ECCENTRICITY":0.0004327,"INCLINATION":97.3996,"RA_OF_ASC_NODE":344.0118,"ARG_OF_PERICENTER":58.9221,"MEAN_ANOMALY":301.2445,"EPHEMERIS_TYPE":0,"CLASSIFICATION_TYPE":"U","NORAD_CAT_ID":63215,"ELEMENT_SET_NO":999,"REV_AT_EPOCH":5777,"BSTAR":0.00074975,"MEAN_MOTION_DOT":0.00022798,"MEAN_MOTION_DDOT":0}]
